OBJECT_NAME,OBJECT_ID,EPOCH,MEAN_MOTION,ECCENTRICITY,INCLINATION,RA_OF_ASC_NODE,ARG_OF_PERICENTER,MEAN_ANOMALY,EPHEMERIS_TYPE,CLASSIFICATION_TYPE,NORAD_CAT_ID,ELEMENT_SET_NO,REV_AT_EPOCH,BSTAR,MEAN_MOTION_DOT,MEAN_MOTION_DDOT
BEIDOU-3S IGSO-1S (C31),2015-019A,2026-07-02T19:12:21.705408,1.00680073,.00768606,49.1798,295.2769,219.1125,144.2493,0,U,40549,999,4123,0,-.19E-5,0
GPS BIIF-10 (PRN 08),2015-033A,2026-07-08T03:53:28.726656,2.00555133,.01152466,53.9664,266.2211,30.2795,330.4465,0,U,40730,999,8041,0,-.3E-7,0
BEIDOU-3S M2S (C58),2015-037A,2026-07-07T17:27:32.376384,1.86232376,.00092257,54.8512,301.3397,257.5297,102.3896,0,U,40748,999,7450,0,-.64E-6,0
BEIDOU-3S M1S (C57),2015-037B,2026-07-08T11:15:42.043104,1.86254806,.00029005,54.8472,301.3010,63.4751,296.5756,0,U,40749,999,7452,0,-.65E-6,0
GSAT0206 (GALILEO 10),2015-045B,2026-07-07T23:42:16.285536,1.70473579,.00019272,54.9404,221.0297,331.1596,28.9023,0,U,40890,999,6739,0,.82E-6,0
BEIDOU-3S IGSO-2S (C56),2015-053A,2026-07-08T14:56:04.941888,1.00254949,.0066069,49.1884,258.5277,192.9058,153.0220,0,U,40938,999,3956,0,-.108E-5,0
GPS BIIF-11 (PRN 10),2015-062A,2026-07-08T05:12:55.793952,2.00566927,.01125666,56.9736,30.0016,230.9199,128.1234,0,U,41019,999,7825,0,-.51E-6,0
GSAT-15 (GAGAN/PRN 139),2015-065A,2026-07-08T14:08:36.874752,1.00272159,.00038032,0.0181,288.3082,160.0831,143.8073,0,U,41028,999,3901,0,-.243E-5,0
GSAT0209 (GALILEO 12),2015-079A,2026-07-08T03:44:33.897696,1.70473596,.00049977,55.8390,100.6867,350.6288,9.3765,0,U,41174,999,6513,0,-.8E-7,0
GSAT0208 (GALILEO 11),2015-079B,2026-07-07T04:52:33.492288,1.70473232,.00041955,55.8371,100.7098,13.7405,346.2886,0,U,41175,999,6553,0,-.3E-7,0
IRNSS-1E,2016-003A,2026-07-08T13:41:06.703008,1.00268726,.00192285,33.2793,59.4398,178.8549,5.2186,0,U,41241,999,3829,0,-.308E-5,0
GPS BIIF-12 (PRN 32),2016-007A,2026-07-07T19:27:01.217664,2.00575851,.00965836,55.5362,88.6419,247.6320,111.3782,0,U,41328,999,7625,0,-.23E-6,0
COSMOS 2514 (751),2016-008A,2026-07-08T09:38:42.927936,2.13102540,.00120783,65.0077,312.2788,200.3602,159.6030,0,U,41330,999,8107,0,-.53E-6,0
BEIDOU-2 IGSO-6 (C13),2016-021A,2026-06-26T02:38:38.671584,1.00258926,.0057558,60.2385,37.9495,231.0163,137.2672,0,U,41434,999,3757,0,-.145E-5,0
IRNSS-1G,2016-027A,2026-07-07T16:04:25.078080,1.00274910,.00059755,5.2447,97.0006,9.1698,190.2027,0,U,41469,999,3738,0,-.321E-5,0
GSAT0211 (GALILEO 14),2016-030A,2026-07-06T17:45:56.222784,1.70473798,.00031513,55.0912,221.1568,320.2571,39.7906,0,U,41549,999,6300,0,.78E-6,0
GSAT0210 (GALILEO 13),2016-030B,2026-07-07T14:01:03.910656,1.70473798,.000782,55.0891,221.1315,257.5040,102.4802,0,U,41550,999,6301,0,.81E-6,0
BEIDOU-2 G7 (C03),2016-037A,2026-07-08T14:13:28.907616,1.00265655,.00063304,1.7696,69.4677,6.3521,174.5396,0,U,41586,999,710,0,-.339E-5,0
EUTELSAT 117 WEST B (WAAS/PRN 131),2016-038B,2026-07-07T16:36:44.479872,1.00274900,.0000098,0.0043,194.6007,339.2111,244.0229,0,U,41589,999,3686,0,.3E-7,0
GSAT0207 (GALILEO 15),2016-069A,2026-07-06T02:28:06.929472,1.70473349,.00044338,55.5088,100.5629,341.1065,18.8968,0,U,41859,999,5972,0,0,0
GSAT0212 (GALILEO 16),2016-069B,2026-07-07T03:06:21.976128,1.70473650,.000438,55.5076,100.5296,9.6218,350.4046,0,U,41860,999,5999,0,-.3E-7,0
GSAT0213 (GALILEO 17),2016-069C,2026-07-06T07:45:43.314336,1.70474232,.00046289,55.5092,100.5598,315.4701,44.5123,0,U,41861,999,5984,0,0,0
GSAT0214 (GALILEO 18),2016-069D,2026-07-06T11:16:20.180064,1.70473830,.00038073,55.5080,100.5485,326.3091,33.6861,0,U,41862,999,5997,0,-.1E-7,0
SES-15 (WAAS/PRN 133),2017-026A,2026-07-08T13:05:08.806848,1.00267138,.00004439,0.0249,326.7931,132.4110,254.4170,0,U,42709,999,764,0,.75E-6,0
QZS-2 (QZSS/PRN 194),2017-028A,2026-07-07T11:47:25.543104,1.00278715,.07582327,39.3970,242.8544,269.5081,92.2444,0,U,42738,999,783,0,-.1E-5,0
QZS-3 (QZSS/PRN 199),2017-048A,2026-07-08T14:18:09.312768,1.00275716,.00025802,0.0774,220.7789,260.1452,147.1435,0,U,42917,999,3247,0,-.333E-5,0
COSMOS 2522 (752),2017-055A,2026-07-08T05:44:58.761600,2.13101984,.00109377,64.0805,191.1677,240.8156,119.1060,0,U,42939,999,6842,0,.125E-5,0
QZS-4 (QZSS/PRN 195),2017-062A,2026-07-08T07:28:13.833408,1.00292396,.07473194,40.0964,343.2180,268.4114,285.3906,0,U,42965,999,3201,0,-.31E-5,0
BEIDOU-3 M1 (C19),2017-069A,2026-07-08T01:47:02.311584,1.86231359,.00094781,56.7093,62.3976,327.6447,32.3589,0,U,43001,999,5899,0,-.45E-6,0
BEIDOU-3 M2 (C20),2017-069B,2026-07-06T22:32:28.510368,1.86231060,.00085921,56.7078,62.4704,355.0487,5.0065,0,U,43002,999,5896,0,-.42E-6,0
GSAT0215 (GALILEO 19),2017-079A,2026-07-08T03:10:45.876288,1.70474226,.00035688,55.0687,220.9299,269.9815,90.0506,0,U,43055,999,5334,0,.83E-6,0
